{
    "links": {
        "self": "http://www.neowsapp.com/rest/v1/neo/3843135?api_key=iIulBulltgU6a56xZRHN4H3l9WmuAYTsLGpBGhQ2"
    },
    "id": "3843135",
    "neo_reference_id": "3843135",
    "name": "(2019 NJ2)",
    "designation": "2019 NJ2",
    "nasa_jpl_url": "http://ssd.jpl.nasa.gov/sbdb.cgi?sstr=3843135",
    "absolute_magnitude_h": 24.9,
    "estimated_diameter": {
        "kilometers": {
            "estimated_diameter_min": 0.0278326768,
            "estimated_diameter_max": 0.0622357573
        },
        "meters": {
            "estimated_diameter_min": 27.8326768072,
            "estimated_diameter_max": 62.2357573367
        },
        "miles": {
            "estimated_diameter_min": 0.0172944182,
            "estimated_diameter_max": 0.0386714948
        },
        "feet": {
            "estimated_diameter_min": 91.3145593761,
            "estimated_diameter_max": 204.1855621004
        }
    },
    "is_potentially_hazardous_asteroid": false,
    "close_approach_data": [
        {
            "close_approach_date": "1952-12-27",
            "close_approach_date_full": "1952-Dec-27 05:25",
            "epoch_date_close_approach": -536870100000,
            "relative_velocity": {
                "kilometers_per_second": "9.95209196",
                "kilometers_per_hour": "35827.5310559414",
                "miles_per_hour": "22261.8345052876"
            },
            "miss_distance": {
                "astronomical": "0.1411611065",
                "lunar": "54.9116704285",
                "kilometers": "21117400.859243155",
                "miles": "13121744.430559339"
            },
            "orbiting_body": "Venus"
        },
        {
            "close_approach_date": "2019-07-19",
            "close_approach_date_full": "2019-Jul-19 19:53",
            "epoch_date_close_approach": 1563565980000,
            "relative_velocity": {
                "kilometers_per_second": "13.4640909304",
                "kilometers_per_hour": "48470.7273492917",
                "miles_per_hour": "30117.8250021196"
            },
            "miss_distance": {
                "astronomical": "0.0342084432",
                "lunar": "13.3070844048",
                "kilometers": "5117510.238735984",
                "miles": "3179873.4096612192"
            },
            "orbiting_body": "Earth"
        },
        {
            "close_approach_date": "2119-07-07",
            "close_approach_date_full": "2119-Jul-07 19:21",
            "epoch_date_close_approach": 4718200860000,
            "relative_velocity": {
                "kilometers_per_second": "19.9607760999",
                "kilometers_per_hour": "71858.79395964",
                "miles_per_hour": "44650.2600578663"
            },
            "miss_distance": {
                "astronomical": "0.2559485883",
                "lunar": "99.5640008487",
                "kilometers": "38289363.639186921",
                "miles": "23791907.3199886698"
            },
            "orbiting_body": "Earth"
        }
    ],
    "orbital_data": {
        "orbit_id": "1",
        "orbit_determination_date": "2019-07-05 20:42:36",
        "first_observation_date": "2019-06-29",
        "last_observation_date": "2019-07-05",
        "data_arc_in_days": 6,
        "observations_used": 18,
        "orbit_uncertainty": "8",
        "minimum_orbit_intersection": ".00819538",
        "jupiter_tisserand_invariant": "4.395",
        "epoch_osculation": "2458668.5",
        "eccentricity": ".4743395191671385",
        "semi_major_axis": "1.50954801074678",
        "inclination": ".8020406784394658",
        "ascending_node_longitude": "334.2280431422311",
        "orbital_period": "677.4368581590742",
        "perihelion_distance": ".7935097331694421",
        "perihelion_argument": "36.31198912268236",
        "aphelion_distance": "2.225586288324118",
        "perihelion_time": "2458735.344733294496",
        "mean_anomaly": "324.4777167108792",
        "mean_motion": ".531414840607131",
        "equinox": "J2000",
        "orbit_class": {
            "orbit_class_type": "APO",
            "orbit_class_description": "Near-Earth asteroid orbits which cross the Earth’s orbit similar to that of 1862 Apollo",
            "orbit_class_range": "a (semi-major axis) > 1.0 AU; q (perihelion) < 1.017 AU"
        }
    },
    "is_sentry_object": false
}